[{"OBJECT_NAME":"OBJECT B","OBJECT_ID":"2025-055B","EPOCH":"2026-03-09T22:16:45.727392","MEAN_MOTION":15.18688893,"ECCENTRICITY":0.0012288,"INCLINATION":97.6347,"RA_OF_ASC_NODE":209.4031,"ARG_OF_PERICENTER":141.9281,"MEAN_ANOMALY":218.2824,"EPHEMERIS_TYPE":0,"CLASSIFICATION_TYPE":"U","NORAD_CAT_ID":63292,"ELEMENT_SET_NO":999,"REV_AT_EPOCH":5406,"BSTAR":0.00077133198,"MEAN_MOTION_DOT":0.00015979,"MEAN_MOTION_DDOT":0},{"OBJECT_NAME":"DIAMANT R\/B","OBJECT_ID":"1965-096B","EPOCH":"2026-03-09T06:37:58.450944","MEAN_MOTION":13.87748546,"ECCENTRICITY":0.05835308,"INCLINATION":34.2444,"RA_OF_ASC_NODE":152.0838,"ARG_OF_PERICENTER":53.3256,"MEAN_ANOMALY":311.9607,"EPHEMERIS_TYPE":0,"CLASSIFICATION_TYPE":"U","NORAD_CAT_ID":1805,"ELEMENT_SET_NO":999,"REV_AT_EPOCH":99082,"BSTAR":0.00024432239,"MEAN_MOTION_DOT":1.159e-5,"MEAN_MOTION_DDOT":0}]
